[{"OBJECT_NAME":"STARLINK-2106","OBJECT_ID":"2021-005AP","EPOCH":"2026-02-11T14:22:18.163776","MEAN_MOTION":15.06395928,"ECCENTRICITY":0.0001413,"INCLINATION":53.0561,"RA_OF_ASC_NODE":148.7471,"ARG_OF_PERICENTER":95.9979,"MEAN_ANOMALY":264.1171,"EPHEMERIS_TYPE":0,"CLASSIFICATION_TYPE":"U","NORAD_CAT_ID":47386,"ELEMENT_SET_NO":999,"REV_AT_EPOCH":27953,"BSTAR":4.675663e-5,"MEAN_MOTION_DOT":4.15e-6,"MEAN_MOTION_DDOT":0},{"OBJECT_NAME":"STARLINK-2109","OBJECT_ID":"2021-005AR","EPOCH":"2026-02-11T15:59:09.824352","MEAN_MOTION":15.06402308,"ECCENTRICITY":0.00012494,"INCLINATION":53.056,"RA_OF_ASC_NODE":178.4445,"ARG_OF_PERICENTER":90.2303,"MEAN_ANOMALY":269.8829,"EPHEMERIS_TYPE":0,"CLASSIFICATION_TYPE":"U","NORAD_CAT_ID":47388,"ELEMENT_SET_NO":999,"REV_AT_EPOCH":27911,"BSTAR":-1.06195e-7,"MEAN_MOTION_DOT":-2.83e-6,"MEAN_MOTION_DDOT":0},{"OBJECT_NAME":"STARLINK-2110","OBJECT_ID":"2021-005AS","EPOCH":"2026-02-12T06:00:02.999808","MEAN_MOTION":15.25901077,"ECCENTRICITY":0.00010511,"INCLINATION":53.1385,"RA_OF_ASC_NODE":154.8135,"ARG_OF_PERICENTER":129.8426,"MEAN_ANOMALY":105.2665,"EPHEMERIS_TYPE":0,"CLASSIFICATION_TYPE":"U","NORAD_CAT_ID":47389,"ELEMENT_SET_NO":999,"REV_AT_EPOCH":578,"BSTAR":0.035123376,"MEAN_MOTION_DOT":0.00991138,"MEAN_MOTION_DDOT":0},{"OBJECT_NAME":"STARLINK-2111","OBJECT_ID":"2021-005AT","EPOCH":"2026-02-11T13:46:28.641504","MEAN_MOTION":15.06397853,"ECCENTRICITY":0.00014163,"INCLINATION":53.0569,"RA_OF_ASC_NODE":178.8582,"ARG_OF_PERICENTER":75.9771,"MEAN_ANOMALY":284.1375,"EPHEMERIS_TYPE":0,"CLASSIFICATION_TYPE":"U","NORAD_CAT_ID":47390,"ELEMENT_SET_NO":999,"REV_AT_EPOCH":27910,"BSTAR":1.823477e-6,"MEAN_MOTION_DOT":-2.54e-6,"MEAN_MOTION_DDOT":0},{"OBJECT_NAME":"STARLINK-2112","OBJECT_ID":"2021-005AU","EPOCH":"2026-02-12T05:55:05.296512","MEAN_MOTION":15.06393545,"ECCENTRICITY":0.000135,"INCLINATION":53.0563,"RA_OF_ASC_NODE":145.8392,"ARG_OF_PERICENTER":91.064,"MEAN_ANOMALY":269.0503,"EPHEMERIS_TYPE":0,"CLASSIFICATION_TYPE":"U","NORAD_CAT_ID":47391,"ELEMENT_SET_NO":999,"REV_AT_EPOCH":27962,"BSTAR":7.5939595e-5,"MEAN_MOTION_DOT":8.5e-6,"MEAN_MOTION_DDOT":0},{"OBJECT_NAME":"STARLINK-2113","OBJECT_ID":"2021-005AV","EPOCH":"2026-02-12T07:23:17.964384","MEAN_MOTION":15.53869058,"ECCENTRICITY":0.00025061,"INCLINATION":53.0541,"RA_OF_ASC_NODE":139.1527,"ARG_OF_PERICENTER":21.7034,"MEAN_ANOMALY":338.4081,"EPHEMERIS_TYPE":0,"CLASSIFICATION_TYPE":"U","NORAD_CAT_ID":47392,"ELEMENT_SET_NO":999,"REV_AT_EPOCH":27972,"BSTAR":0.00076797774,"MEAN_MOTION_DOT":0.0005014,"MEAN_MOTION_DDOT":0},{"OBJECT_NAME":"STARLINK-2114","OBJECT_ID":"2021-005AW","EPOCH":"2026-02-12T03:45:12.821760","MEAN_MOTION":15.51170774,"ECCENTRICITY":0.00076121,"INCLINATION":53.0487,"RA_OF_ASC_NODE":107.6442,"ARG_OF_PERICENTER":0.5664,"MEAN_ANOMALY":359.5351,"EPHEMERIS_TYPE":0,"CLASSIFICATION_TYPE":"U","NORAD_CAT_ID":47393,"ELEMENT_SET_NO":999,"REV_AT_EPOCH":28015,"BSTAR":0.0021042333,"MEAN_MOTION_DOT":0.00126719,"MEAN_MOTION_DDOT":0},{"OBJECT_NAME":"STARLINK-2119","OBJECT_ID":"2021-005BA","EPOCH":"2026-02-12T06:24:20.172960","MEAN_MOTION":15.0638822,"ECCENTRICITY":0.00012749,"INCLINATION":53.054,"RA_OF_ASC_NODE":175.7461,"ARG_OF_PERICENTER":96.8088,"MEAN_ANOMALY":263.3046,"EPHEMERIS_TYPE":0,"CLASSIFICATION_TYPE":"U","NORAD_CAT_ID":47397,"ELEMENT_SET_NO":999,"REV_AT_EPOCH":27921,"BSTAR":8.8071284e-5,"MEAN_MOTION_DOT":1.03e-5,"MEAN_MOTION_DDOT":0},{"OBJECT_NAME":"STARLINK-2121","OBJECT_ID":"2021-005BC","EPOCH":"2026-02-12T06:00:02.999808","MEAN_MOTION":15.27621601,"ECCENTRICITY":0.00018579,"INCLINATION":53.1468,"RA_OF_ASC_NODE":154.8157,"ARG_OF_PERICENTER":105.4157,"MEAN_ANOMALY":81.1425,"EPHEMERIS_TYPE":0,"CLASSIFICATION_TYPE":"U","NORAD_CAT_ID":47399,"ELEMENT_SET_NO":999,"REV_AT_EPOCH":583,"BSTAR":0.032026738,"MEAN_MOTION_DOT":0.00948246,"MEAN_MOTION_DDOT":0},{"OBJECT_NAME":"STARLINK-2122","OBJECT_ID":"2021-005BD","EPOCH":"2026-02-12T06:41:35.584512","MEAN_MOTION":15.30180748,"ECCENTRICITY":0.00012012,"INCLINATION":53.1596,"RA_OF_ASC_NODE":131.5376,"ARG_OF_PERICENTER":102.4925,"MEAN_ANOMALY":257.6211,"EPHEMERIS_TYPE":0,"CLASSIFICATION_TYPE":"U","NORAD_CAT_ID":47400,"ELEMENT_SET_NO":999,"REV_AT_EPOCH":27983,"BSTAR":4.6432238e-5,"MEAN_MOTION_DOT":1.016e-5,"MEAN_MOTION_DDOT":0},{"OBJECT_NAME":"STARLINK-2123","OBJECT_ID":"2021-005BE","EPOCH":"2026-02-12T06:07:04.734624","MEAN_MOTION":15.06388348,"ECCENTRICITY":0.00014046,"INCLINATION":53.0555,"RA_OF_ASC_NODE":145.8033,"ARG_OF_PERICENTER":73.9783,"MEAN_ANOMALY":286.136,"EPHEMERIS_TYPE":0,"CLASSIFICATION_TYPE":"U","NORAD_CAT_ID":47401,"ELEMENT_SET_NO":999,"REV_AT_EPOCH":27963,"BSTAR":-0.00014981608,"MEAN_MOTION_DOT":-2.511e-5,"MEAN_MOTION_DDOT":0},{"OBJECT_NAME":"STARLINK-2128","OBJECT_ID":"2021-005BH","EPOCH":"2026-02-12T06:29:52.287648","MEAN_MOTION":15.54613962,"ECCENTRICITY":0.00012608,"INCLINATION":53.0545,"RA_OF_ASC_NODE":139.3182,"ARG_OF_PERICENTER":53.718,"MEAN_ANOMALY":306.3946,"EPHEMERIS_TYPE":0,"CLASSIFICATION_TYPE":"U","NORAD_CAT_ID":47404,"ELEMENT_SET_NO":999,"REV_AT_EPOCH":27972,"BSTAR":0.00090570035,"MEAN_MOTION_DOT":0.00060938,"MEAN_MOTION_DDOT":0},{"OBJECT_NAME":"STARLINK-2130","OBJECT_ID":"2021-005BJ","EPOCH":"2026-02-11T15:53:51.755712","MEAN_MOTION":15.06395407,"ECCENTRICITY":0.00013218,"INCLINATION":53.0565,"RA_OF_ASC_NODE":178.4625,"ARG_OF_PERICENTER":86.9728,"MEAN_ANOMALY":273.1412,"EPHEMERIS_TYPE":0,"CLASSIFICATION_TYPE":"U","NORAD_CAT_ID":47405,"ELEMENT_SET_NO":999,"REV_AT_EPOCH":27911,"BSTAR":2.3051849e-5,"MEAN_MOTION_DOT":6.2e-7,"MEAN_MOTION_DDOT":0},{"OBJECT_NAME":"STARLINK-2134","OBJECT_ID":"2021-005BL","EPOCH":"2026-02-11T13:34:30.571968","MEAN_MOTION":15.0641452,"ECCENTRICITY":0.00014843,"INCLINATION":53.0561,"RA_OF_ASC_NODE":148.8967,"ARG_OF_PERICENTER":68.9353,"MEAN_ANOMALY":291.1795,"EPHEMERIS_TYPE":0,"CLASSIFICATION_TYPE":"U","NORAD_CAT_ID":47407,"ELEMENT_SET_NO":999,"REV_AT_EPOCH":27952,"BSTAR":6.4190044e-5,"MEAN_MOTION_DOT":6.75e-6,"MEAN_MOTION_DDOT":0},{"OBJECT_NAME":"STARLINK-2135","OBJECT_ID":"2021-005BM","EPOCH":"2026-02-12T06:23:01.237056","MEAN_MOTION":15.06399862,"ECCENTRICITY":0.00014387,"INCLINATION":53.0569,"RA_OF_ASC_NODE":145.7572,"ARG_OF_PERICENTER":89.8037,"MEAN_ANOMALY":270.3116,"EPHEMERIS_TYPE":0,"CLASSIFICATION_TYPE":"U","NORAD_CAT_ID":47408,"ELEMENT_SET_NO":999,"REV_AT_EPOCH":27963,"BSTAR":0.00014697229,"MEAN_MOTION_DOT":1.908e-5,"MEAN_MOTION_DDOT":0},{"OBJECT_NAME":"STARLINK-1954","OBJECT_ID":"2021-009H","EPOCH":"2026-02-11T12:04:56.912736","MEAN_MOTION":15.27954769,"ECCENTRICITY":0.00019701,"INCLINATION":53.0598,"RA_OF_ASC_NODE":131.9225,"ARG_OF_PERICENTER":4.2913,"MEAN_ANOMALY":355.8102,"EPHEMERIS_TYPE":0,"CLASSIFICATION_TYPE":"U","NORAD_CAT_ID":47555,"ELEMENT_SET_NO":999,"REV_AT_EPOCH":27695,"BSTAR":0.00078535613,"MEAN_MOTION_DOT":0.00021423,"MEAN_MOTION_DDOT":0}]
