STARLINK-2106           
1 47386U 21005AP  26042.59882134  .00000415  00000+0  46757-4 0  9992
2 47386  53.0561 148.7471 0001413  95.9979 264.1171 15.06395928279535
STARLINK-2109           
1 47388U 21005AR  26042.66608593 -.00000283  00000+0 -10620-6 0  9994
2 47388  53.0560 178.4445 0001249  90.2303 269.8829 15.06402308279110
STARLINK-2110           
1 47389U 21005AS  26043.25003472  .00991138  00000+0  35123-1 0  9992
2 47389  53.1385 154.8135 0001051 129.8426 105.2665 15.25901077  5786
STARLINK-2111           
1 47390U 21005AT  26042.57394261 -.00000254  00000+0  18235-5 0  9997
2 47390  53.0569 178.8582 0001416  75.9771 284.1375 15.06397853279106
STARLINK-2112           
1 47391U 21005AU  26043.24658908  .00000850  00000+0  75940-4 0  9990
2 47391  53.0563 145.8392 0001350  91.0640 269.0503 15.06393545279621
STARLINK-2113           
1 47392U 21005AV  26043.30784681  .00050140  00000+0  76798-3 0  9994
2 47392  53.0541 139.1527 0002506  21.7034 338.4081 15.53869058279727
STARLINK-2114           
1 47393U 21005AW  26043.15639840  .00126719  00000+0  21042-2 0  9991
2 47393  53.0487 107.6442 0007612   0.5664 359.5351 15.51170774280151
STARLINK-2119           
1 47397U 21005BA  26043.26690015  .00001030  00000+0  88071-4 0  9993
2 47397  53.0540 175.7461 0001274  96.8088 263.3046 15.06388220279213
STARLINK-2121           
1 47399U 21005BC  26043.25003472  .00948246  00000+0  32027-1 0  9995
2 47399  53.1468 154.8157 0001857 105.4157  81.1425 15.27621601  5834
STARLINK-2122           
1 47400U 21005BD  26043.27888408  .00001016  00000+0  46432-4 0  9993
2 47400  53.1596 131.5376 0001201 102.4925 257.6211 15.30180748279839
STARLINK-2123           
1 47401U 21005BE  26043.25491591 -.00002511  00000+0 -14982-3 0  9992
2 47401  53.0555 145.8033 0001404  73.9783 286.1360 15.06388348279630
STARLINK-2128           
1 47404U 21005BH  26043.27074407  .00060938  00000+0  90570-3 0  9992
2 47404  53.0545 139.3182 0001260  53.7180 306.3946 15.54613962279723
STARLINK-2130           
1 47405U 21005BJ  26042.66240458  .00000062  00000+0  23052-4 0  9990
2 47405  53.0565 178.4625 0001321  86.9728 273.1412 15.06395407279116
STARLINK-2134           
1 47407U 21005BL  26042.56563162  .00000675  00000+0  64190-4 0  9999
2 47407  53.0561 148.8967 0001484  68.9353 291.1795 15.06414520279525
STARLINK-2135           
1 47408U 21005BM  26043.26598654  .00001908  00000+0  14697-3 0  9998
2 47408  53.0569 145.7572 0001438  89.8037 270.3116 15.06399862279631
STARLINK-1954           
1 47555U 21009H   26042.50343649  .00021423  00000+0  78536-3 0  9999
2 47555  53.0598 131.9225 0001970   4.2913 355.8102 15.27954769276955
